STARLINK-5624           
1 55416U 23014AB  26068.42571833  .00001739  00000+0  15354-3 0  9996
2 55416  69.9988  85.0849 0003726 272.6312  87.4420 14.98326154171521
HAWK-9A                 
1 59446U 24066E   26068.43100697  .00002638  00000+0  23459-3 0  9992
2 59446  45.6088  72.7153 0003627 244.6286 115.4219 14.98777479104861
